#aV2016  5  4  0  0  0.00000000     288 DD+AD WGS84 FIT  NGA
## 1895 259200.00000000   300.00000000 57512 0.0000000000000
+   31     1  2  3  5  6  7  8  9 10 11 12 13 14 15 16 17 18
+         19 20 21 22 23 24 25 26 27 28 29 30 31 32  0  0  0
+          0  0  0  0  0  0  0  0  0  0  0  0  0  0  0  0  0
+          0  0  0  0  0  0  0  0  0  0  0  0  0  0  0  0  0
+          0  0  0  0  0  0  0  0  0  0  0  0  0  0  0  0  0
++         2  2  2  2  2  2  2  2  2  2  2  2  2  2  2  2  2
++         2  2  2  2  2  2  2  2  2  2  2  2  2  2  0  0  0
++         0  0  0  0  0  0  0  0  0  0  0  0  0  0  0  0  0
++         0  0  0  0  0  0  0  0  0  0  0  0  0  0  0  0  0
++         0  0  0  0  0  0  0  0  0  0  0  0  0  0  0  0  0
%c cc cc ccc ccc cccc cccc cccc cccc ccccc ccccc ccccc ccccc
%c cc cc ccc ccc cccc cccc cccc cccc ccccc ccccc ccccc ccccc
%f  0.0000000  0.000000000  0.00000000000  0.000000000000000
%f  0.0000000  0.000000000  0.00000000000  0.000000000000000
%i    0    0    0    0      0      0      0      0         0
%i    0    0    0    0      0      0      0      0         0
/*      NGA, ST. LOUIS,MO.                                  
/*   EPHEMERIS COMPUTED FROM 2 DAYS OF DATA                 
/*   EPOCHA v2.4 SMOOTHER                                   
/*   G1762 IERS2010 SATAF SATAPC                            
*  2016  5  4  4  5  0.00000000
P  1  18582.330065  13879.530481 -13226.185289     19.280267                    
V  1 -16584.841061  -1916.297569 -25229.284177      0.011726                    
P  2   2886.014788 -15551.687992  21775.631758    593.783177                    
V  2  26182.007690   5197.166759   -150.019146     -0.020583                    
P  3  13513.430873  20607.810161   9905.970428    -54.148381                    
V  3   1204.892014  12775.023941 -28244.256862     -0.038950                    
P  5  -1710.145874 -25069.160767   8227.802136   -123.708030                    
V  5   6252.393429   9155.153788  29156.572666      0.030887                    
P  6  18644.136306  -7957.935870  17176.916227    185.101116                    
V  6  20845.878865   6514.647860 -19621.830172      0.055502                    
P  7  26117.877948   5724.768236  -1399.714427    456.593990                    
V  7   1283.360230   2706.877227  31547.944897     -0.021508                    
P  8    812.564616  18539.403571 -18935.981392    -33.799892                    
V  8 -17399.155808  16820.598014  15712.730462     -0.014136                    
P  9  18447.555132   -105.506828  19097.170210    122.290359                    
V  9 -15427.112909  18822.172140  14975.675958      0.073585                    
P 10 -13142.537691   8423.946350 -21463.156407    -13.869582                    
V 10  -8499.297933 -25957.230069  -5042.489355     -0.092771                    
P 11  13829.889120  13320.199889 -18921.056751   -645.341170                    
V 11 -22648.980176   5207.255933 -13240.911914     -0.021908                    
P 12 -10516.344681 -23467.954034   6960.621785    378.517388                    
V 12   -569.990146  -9062.388539 -30627.827234      0.012738                    
P 13   8220.321580 -20460.638317 -15002.451819    -15.393398                    
V 13  15383.940605 -10871.886733  23372.881478     -0.026553                    
P 14 -20952.199741  15675.946492  -3785.833939    -11.895952                    
V 14   1877.447577  -5557.044119 -31453.264896     -0.021061                    
P 15  -5480.791854 -16660.664656 -19977.429125   -309.329387                    
V 15  17290.060560 -18531.287503  11124.861602     -0.017062                    
P 16   -376.212479  24754.521687   8958.937529    -20.044556                    
V 16  -4551.928587 -10863.732027  29871.683741      0.026560                    
P 17  21249.183426 -13739.688616  -7422.624032   -203.560110                    
V 17  -5405.014765   8636.957765 -30311.364339     -0.002115                    
P 18 -17061.574704  -5269.725248 -19197.992855    511.691802                    
V 18  -6752.928308 -24743.669320  12188.431040      0.042097                    
P 19  19082.835864 -18645.728729   1922.183401   -525.708708                    
V 19   3416.620503   -214.637908 -31661.640173     -0.000157                    
P 20 -13544.164437 -22090.061336  -5876.700933    410.013883                    
V 20    794.802557  -8197.759059  29789.279119      0.023918                    
P 21 -26209.738472  -2710.139956  -3514.710706   -521.428667                    
V 21  -4563.994728  -4434.489107  30612.105453     -0.013701                    
P 22   9191.442493  24832.798163    990.948481    349.788681                    
V 22  -3579.279851   2258.572251 -30941.398338     -0.078994                    
P 23  12183.146815   9813.232177  21661.766232   -172.232210                    
V 23 -18532.458333  19782.045574   1032.774049     -0.016875                    
P 24 -15806.958825 -14723.586449 -15637.769960    -16.514942                    
V 24  19711.939934   1999.201670 -21695.549217     -0.005596                    
P 25 -15649.830252 -14029.662524  16235.751676   -164.885752                    
V 25  -4620.967132 -20255.459104 -21602.937419     -0.070667                    
P 26  -6603.295847  19141.072789  17159.890528   -352.429333                    
V 26  -8179.488042 -20303.438810  19541.990778     -0.128442                    
P 27  -9170.189715  21835.314894 -11879.214277     88.790275                    
V 27 -11870.440215   9563.160310  26970.911390      0.039833                    
P 28  13190.116438  -6072.953505 -21611.500397    520.555841                    
V 28   6560.896930  28136.752962  -3836.954677      0.026233                    
P 29 -16288.670893  -3687.299974  20649.940277    657.154075                    
V 29  18328.611733 -18688.792013  11170.781093      0.001156                    
P 30  24134.249337   -940.180396 -11166.662110    122.278686                    
V 30  12777.554487   6599.807693  26989.012940      0.032532                    
P 31 -16589.747867   8972.881660  18948.851947    270.706061                    
V 31 -22616.434674  -7129.003770 -16158.985265     -0.018590                    
P 32 -20382.428323  15953.039754  -5925.433889     -1.196775                    
V 32   3097.679778  -7397.464789 -30548.780508     -0.048885                    
EOF
